#dP2024  7 31 12  0  0.00000000      96 __u+U IGS20 EXT  IAC
## 2325 302400.00000000   900.00000000 60522 0.5000000000000
+   54   G02G03G04G05G06G07G08G09G10G11G12G13G14G15G16G17G18
+        G19G20G21G22G23G24G25G26G27G28G29G30G31G32R01R02R03
+        R04R05R07R08R09R11R12R13R14R15R16R17R18R19R20R21R22
+        R24R25R26  0  0  0  0  0  0  0  0  0  0  0  0  0  0
+          0  0  0  0  0  0  0  0  0  0  0  0  0  0  0  0  0
++         9  6  9  7  7  9  8  9  9  6  7  7  7  7  8  7  8
++         7  7  9  7  8  7  8  8  8  8  8  8  8  9  8  8  8
++         8  9  7  7  8  7  8  8  7 10  7  7  8  7  8  7  7
++         8  8  7  0  0  0  0  0  0  0  0  0  0  0  0  0  0
++         0  0  0  0  0  0  0  0  0  0  0  0  0  0  0  0  0
%c M  cc GPS ccc cccc cccc cccc cccc ccccc ccccc ccccc ccccc
%c cc cc ccc ccc cccc cccc cccc cccc ccccc ccccc ccccc ccccc
%f  0.0000000  0.000000000  0.00000000000  0.000000000000000
%f  0.0000000  0.000000000  0.00000000000  0.000000000000000
%i    0    0    0    0      0      0      0      0         0
%i    0    0    0    0      0      0      0      0         0
/* IAC                                ULTRA-RAPID PREDICTION
/* S/V CLOCKS ARE ALIGNED TO GNSS TIME                      
/* G:C1WC2W R:C1PC2P E:C1XC5X C:C2IC6I J:C1CC2S             
/* PCV:IGS20_2317 OL/AL:FES2004  NONE     YN ORB:CoN CLK:CoN
*  2024 08 01  7  0  0.00000000
PG02  14574.979182 -21619.087747   4547.553405   -387.818117
PG03  12631.736128 -12641.016025 -19774.975343    482.201023
PG04   4783.912851 -18744.960715 -18122.115753    415.365671
PG05 -24876.173647   5460.419052   7491.501986   -181.698186
PG06 -11532.070408  -8937.155980 -22128.281877    126.440195
PG07   2314.103691 -22566.216494  13951.868434    -59.208465
PG08  12749.632717  -8565.701361  21543.274880    298.108827
PG09  -5647.343506 -24015.244798  -9853.899864    296.147901
PG10  19422.428499  10700.609851  15071.275987    -81.430763
PG11 -18714.559848   5119.374077 -18085.295364   -714.586241
PG12 -16077.056665  11128.857096 -18232.681372   -526.866311
PG13 -15754.831641  -1086.782855  21175.452542    668.141902
PG14 -15812.728788 -13176.885055  16948.162434    462.177765
PG15 -11474.147089  10482.005161  21022.713789    187.562450
PG16  26413.341471    254.507591   4187.581466   -220.794967
PG17 -13371.837246 -22390.419177  -4121.414113    665.237668
PG18  -2835.161444  22137.321148  14248.076582   -642.217172
PG19 -16392.218895 -16932.528720 -12813.877573    518.477432
PG20 -26235.888875   1551.501454  -3150.188336    372.152304
PG21  16544.414367 -17818.608798   9737.490424    105.518041
PG22 -21558.978160 -10675.382494  11336.898174    -46.276615
PG23   7150.138184  14308.849128  21266.243363    287.119273
PG24 -14777.905405  21039.227420   5302.812358   -485.149350
PG25  -3850.133297  15405.174668 -21604.546327    498.998787
PG26  24776.010892   5310.272942  -8721.140628    109.216545
PG27  17466.424364   3595.130753  19525.192206    -32.317026
PG28  10767.470547  11333.143158 -21482.062264   -354.822024
PG29    836.895085  23323.937018 -12602.109986   -586.553762
PG30  -6836.984523 -16521.800505  19712.037120   -347.840963
PG31  17519.364553   -517.528313 -20283.867202   -226.290758
PG32  15760.376849  20705.731965  -5616.788730   -608.825366
PR01   2267.778024  14556.891542  20816.356588     93.132138
PR02  15292.681050  18668.665659   8406.322659    -23.935627
PR03  20552.657642  12134.349185  -9040.949366    104.817046
PR04  14225.688457   -478.925813 -21146.064129    247.841423
PR05    521.503698 -13035.194690 -21907.737681    135.375074
PR07 -20465.636870 -11631.848604   9798.725369     87.883449
PR08 -14100.796447    963.750205  21281.833059     -6.242205
PR09  -6722.570129  -9497.968614  22728.631242    200.888073
PR11 -23960.015338   8780.887442   -175.471582     16.345035
PR12 -12434.135348  13456.911696 -17711.662172     43.108325
PR13   3584.549020  10473.544529 -22986.805493    -50.012806
PR14  20844.416698    -20.143971 -14667.376830     26.739781
PR15  23633.792009  -9388.656104   1946.369095     77.297616
PR16  12553.942204 -13411.852374  17693.748219     27.879676
PR17   9731.749518   5138.688582  23013.281517    109.656038
PR18  11437.251336 -12283.382022  19205.400874    154.824451
PR19   8841.905314 -22801.974781   7271.701467   -285.963735
PR20  -1000.646142 -21546.261607 -13587.156320   -117.027245
PR21  -9438.986837  -5840.410981 -22971.759467   -122.328262
PR22 -11969.984990  13109.982386 -18294.997938     78.138310
PR24   2544.388210  21219.860965  13919.133229    -66.035888
PR25  -9902.544652  -5303.323600 -22899.606107    -99.040386
PR26 -15048.988842   -179.388690  20618.749736      7.308822
*  2024 08 01  7 15  0.00000000
PG02  14528.853835 -20944.319268   7326.319096   -387.811354
PG03  14775.231515 -12532.815631 -18279.836065    482.215067
PG04   5909.696748 -16894.688956 -19563.518277    415.372525
PG05 -25603.950335   5282.995427   4732.253799   -181.699388
PG06 -10216.575775 -11086.622646 -21791.461481    126.418873
PG07   3233.668608 -23660.590169  11641.238546    -59.202490
PG08  14075.709132  -6460.065873  21490.327349    298.122601
PG09  -4800.346031 -23057.839754 -12310.655262    296.161684
PG10  17634.653481  10800.161688  17063.834132    -81.440219
PG11 -17652.868915   3236.670824 -19533.260862   -714.591747
PG12 -18001.467749  10844.248000 -16492.083527   -526.869006
PG13 -16593.977139  -3347.728797  20309.609957    668.143967
PG14 -13789.556635 -13285.063765  18539.145863    462.185679
PG15 -13056.999639   8519.155608  21003.236709    187.566324
PG16  26743.819867    505.621714   1380.324735   -220.785506
PG17 -13308.205317 -22819.253863  -1262.877761    665.229833
PG18  -3769.962180  23325.958221  11926.449435   -642.220358
PG19 -16761.721353 -18181.232254 -10399.280073    518.482172
PG20 -25763.366892   1182.835037  -5938.362015    372.151912
PG21  16281.284079 -16579.223725  12253.815957    105.516127
PG22 -20161.656734 -10767.832692  13690.591822    -46.280527
PG23   4697.932616  14406.587811  21857.134624    287.127168
PG24 -14758.842703  20144.452644   7984.950067   -485.150303
PG25  -6227.094640  15381.647410 -21027.680808    498.999049
PG26  23688.852117   5672.346326 -11174.642879    109.209977
PG27  18483.490507   5546.244403  18139.872922    -32.317663
PG28   9572.986513  13436.824532 -20824.263707   -354.835800
PG29     -5.891246  21990.957591 -14846.972861   -586.551943
PG30  -5614.304245 -18321.379633  18433.389748   -347.834959
PG31  16369.564513   1498.161237 -21151.643639   -226.290415
PG32  15816.310854  21257.751191  -2822.641277   -608.823176
PR01    196.455166  12915.110513  21990.104614     93.133116
PR02  14461.443020  17775.085216  11317.758198    -23.935835
PR03  21378.060420  12597.300581  -6001.179914    104.817863
PR04  16227.143324   1059.763633 -19632.631239    247.842993
PR05   2616.707859 -11239.714060 -22738.292448    135.375407
PR07 -21353.667295 -12155.969839   6791.368620     87.884192
PR08 -16110.839385   -566.001097  19812.130695     -6.242374
PR09  -4140.180266 -10590.863634  22855.379467    200.889737
PR11 -23744.456063   8851.182655   3027.598258     16.343878
PR12 -14314.118119  14292.396034 -15503.128306     43.108638
PR13    977.674298  11545.110087 -22730.756249    -50.013176
PR14  18999.792072    635.608894 -16976.379094     26.739750
PR15  23624.144533  -9520.942765  -1256.476030     77.297184
PR16  14415.005694 -14264.808259  15462.790615     27.879934
PR17   9317.953481   7911.358868  22385.668582    109.659032
PR18  10910.759643  -9865.299223  20840.712701    154.826093
PR19   8421.583196 -21781.264483  10276.226890   -285.965063
PR20   -874.407454 -23063.220408 -10823.679920   -117.027745
PR21  -9012.524012  -8601.503028 -22267.180388   -122.331074
PR22 -11424.546268  10799.969250 -20064.719488     78.131951
PR24   2422.799182  22770.724369  11224.960345    -66.037344
PR25  -9377.009182  -8044.099893 -22317.013365    -99.041802
PR26 -17008.680902  -1633.821006  18965.560697      7.310493
EOF
